{
  "type": "FeatureCollection",
  "features": [
    {
      "type": "Feature",
      "properties": {
        "norad_id": 35455,
        "name": "COSMOS 2251 DEB",
        "group": "cosmos-2251-debris",
        "lat": -13.140690876754242,
        "lon": 123.39262532077693,
        "alt_km": 792.5532201659644,
        "timestamp": "2025-12-10T04:57:30.018062+00:00",
        "meta_object_name": "COSMOS 2251 DEB",
        "meta_object_id": "1993-036AKZ",
        "meta_epoch": "2025-12-09T14:49:18.253632",
        "meta_mean_motion": 14.49343184,
        "meta_eccentricity": 0.0098941,
        "meta_inclination": 74.0284,
        "meta_ra_of_asc_node": 300.6641,
        "meta_arg_of_pericenter": 44.9536,
        "meta_mean_anomaly": 315.958,
        "meta_ephemeris_type": 0,
        "meta_classification_type": "U",
        "meta_norad_cat_id": 35455,
        "meta_element_set_no": 999,
        "meta_rev_at_epoch": 86498,
        "meta_bstar": 0.0024474,
        "meta_mean_motion_dot": 9.937e-05,
        "meta_mean_motion_ddot": 0,
        "tle_line1": "1 35455U 93036AKZ 25343.61757238  .00009937  00000+0  24474-2 0  9999",
        "tle_line2": "2 35455  74.0284 300.6641 0098941  44.9536 315.9580 14.49343184864988"
      },
      "geometry": {
        "type": "Point",
        "coordinates": [
          123.39262532077693,
          -13.140690876754242
        ]
      }
    },
    {
      "type": "Feature",
      "properties": {
        "norad_id": 35456,
        "name": "COSMOS 2251 DEB",
        "group": "cosmos-2251-debris",
        "lat": 11.638617149297756,
        "lon": 125.80827957347907,
        "alt_km": 628.398316501035,
        "timestamp": "2025-12-10T04:57:30.018072+00:00",
        "meta_object_name": "COSMOS 2251 DEB",
        "meta_object_id": "1993-036ALA",
        "meta_epoch": "2025-12-07T16:26:35.520576",
        "meta_mean_motion": 14.69275987,
        "meta_eccentricity": 0.0065481,
        "meta_inclination": 73.9502,
        "meta_ra_of_asc_node": 127.3161,
        "meta_arg_of_pericenter": 338.308,
        "meta_mean_anomaly": 21.5318,
        "meta_ephemeris_type": 0,
        "meta_classification_type": "U",
        "meta_norad_cat_id": 35456,
        "meta_element_set_no": 999,
        "meta_rev_at_epoch": 65801,
        "meta_bstar": 0.0028319025,
        "meta_mean_motion_dot": 0.00017275,
        "meta_mean_motion_ddot": 0,
        "tle_line1": "1 35456U 93036ALA 25341.68513334  .00017275  00000+0  28319-2 0  9998",
        "tle_line2": "2 35456  73.9502 127.3161 0065481 338.3080  21.5318 14.69275987658019"
      },
      "geometry": {
        "type": "Point",
        "coordinates": [
          125.80827957347907,
          11.638617149297756
        ]
      }
    },
    {
      "type": "Feature",
      "properties": {
        "norad_id": 35459,
        "name": "COSMOS 2251 DEB",
        "group": "cosmos-2251-debris",
        "lat": -33.94691892896976,
        "lon": -179.24052560769496,
        "alt_km": 784.4204600997327,
        "timestamp": "2025-12-10T04:57:30.018082+00:00",
        "meta_object_name": "COSMOS 2251 DEB",
        "meta_object_id": "1993-036ALD",
        "meta_epoch": "2025-12-09T20:46:20.686080",
        "meta_mean_motion": 14.37455732,
        "meta_eccentricity": 0.0016384,
        "meta_inclination": 73.87,
        "meta_ra_of_asc_node": 192.6266,
        "meta_arg_of_pericenter": 141.5261,
        "meta_mean_anomaly": 218.7063,
        "meta_ephemeris_type": 0,
        "meta_classification_type": "U",
        "meta_norad_cat_id": 35459,
        "meta_element_set_no": 999,
        "meta_rev_at_epoch": 58320,
        "meta_bstar": 0.00039096,
        "meta_mean_motion_dot": 1.144e-05,
        "meta_mean_motion_ddot": 0,
        "tle_line1": "1 35459U 93036ALD 25343.86551720  .00001144  00000+0  39096-3 0  9997",
        "tle_line2": "2 35459  73.8700 192.6266 0016384 141.5261 218.7063 14.37455732583203"
      },
      "geometry": {
        "type": "Point",
        "coordinates": [
          -179.24052560769496,
          -33.94691892896976
        ]
      }
    },
    {
      "type": "Feature",
      "properties": {
        "norad_id": 35462,
        "name": "COSMOS 2251 DEB",
        "group": "cosmos-2251-debris",
        "lat": 69.09968548296034,
        "lon": 44.734963781327586,
        "alt_km": 843.3915414737057,
        "timestamp": "2025-12-10T04:57:30.018092+00:00",
        "meta_object_name": "COSMOS 2251 DEB",
        "meta_object_id": "1993-036ALG",
        "meta_epoch": "2025-12-08T12:09:24.774336",
        "meta_mean_motion": 14.29237925,
        "meta_eccentricity": 0.00868955,
        "meta_inclination": 74.0371,
        "meta_ra_of_asc_node": 276.3719,
        "meta_arg_of_pericenter": 312.4106,
        "meta_mean_anomaly": 46.9712,
        "meta_ephemeris_type": 0,
        "meta_classification_type": "U",
        "meta_norad_cat_id": 35462,
        "meta_element_set_no": 999,
        "meta_rev_at_epoch": 66320,
        "meta_bstar": 0.0026621156,
        "meta_mean_motion_dot": 7.028e-05,
        "meta_mean_motion_ddot": 0,
        "tle_line1": "1 35462U 93036ALG 25342.50653674  .00007028  00000+0  26621-2 0  9998",
        "tle_line2": "2 35462  74.0371 276.3719 0086895 312.4106  46.9712 14.29237925663202"
      },
      "geometry": {
        "type": "Point",
        "coordinates": [
          44.734963781327586,
          69.09968548296034
        ]
      }
    },
    {
      "type": "Feature",
      "properties": {
        "norad_id": 35465,
        "name": "COSMOS 2251 DEB",
        "group": "cosmos-2251-debris",
        "lat": 24.389838568498206,
        "lon": -150.77279430607277,
        "alt_km": 701.458447588886,
        "timestamp": "2025-12-10T04:57:30.018102+00:00",
        "meta_object_name": "COSMOS 2251 DEB",
        "meta_object_id": "1993-036ALK",
        "meta_epoch": "2025-12-09T07:13:54.181920",
        "meta_mean_motion": 14.44306043,
        "meta_eccentricity": 0.0063804,
        "meta_inclination": 73.9983,
        "meta_ra_of_asc_node": 203.4389,
        "meta_arg_of_pericenter": 4.3071,
        "meta_mean_anomaly": 355.8621,
        "meta_ephemeris_type": 0,
        "meta_classification_type": "U",
        "meta_norad_cat_id": 35465,
        "meta_element_set_no": 999,
        "meta_rev_at_epoch": 87192,
        "meta_bstar": 0.00063465,
        "meta_mean_motion_dot": 2.21e-05,
        "meta_mean_motion_ddot": 0,
        "tle_line1": "1 35465U 93036ALK 25343.30132155  .00002210  00000+0  63465-3 0  9992",
        "tle_line2": "2 35465  73.9983 203.4389 0063804   4.3071 355.8621 14.44306043871925"
      },
      "geometry": {
        "type": "Point",
        "coordinates": [
          -150.77279430607277,
          24.389838568498206
        ]
      }
    },
    {
      "type": "Feature",
      "properties": {
        "norad_id": 35469,
        "name": "COSMOS 2251 DEB",
        "group": "cosmos-2251-debris",
        "lat": 8.434162800153212,
        "lon": -153.80146138267958,
        "alt_km": 674.3640599357204,
        "timestamp": "2025-12-10T04:57:30.018112+00:00",
        "meta_object_name": "COSMOS 2251 DEB",
        "meta_object_id": "1993-036ALP",
        "meta_epoch": "2025-12-07T11:35:01.685760",
        "meta_mean_motion": 14.4981221,
        "meta_eccentricity": 0.00771882,
        "meta_inclination": 74.0177,
        "meta_ra_of_asc_node": 33.7518,
        "meta_arg_of_pericenter": 190.4188,
        "meta_mean_anomaly": 169.5378,
        "meta_ephemeris_type": 0,
        "meta_classification_type": "U",
        "meta_norad_cat_id": 35469,
        "meta_element_set_no": 999,
        "meta_rev_at_epoch": 88035,
        "meta_bstar": 0.00021613901,
        "meta_mean_motion_dot": 8.36e-06,
        "meta_mean_motion_ddot": 0,
        "tle_line1": "1 35469U 93036ALP 25341.48265840  .00000836  00000+0  21614-3 0  9993",
        "tle_line2": "2 35469  74.0177  33.7518 0077188 190.4188 169.5378 14.49812210880359"
      },
      "geometry": {
        "type": "Point",
        "coordinates": [
          -153.80146138267958,
          8.434162800153212
        ]
      }
    },
    {
      "type": "Feature",
      "properties": {
        "norad_id": 35475,
        "name": "COSMOS 2251 DEB",
        "group": "cosmos-2251-debris",
        "lat": -22.494577391850253,
        "lon": -2.6478080361134895,
        "alt_km": 656.0382737902219,
        "timestamp": "2025-12-10T04:57:30.018122+00:00",
        "meta_object_name": "COSMOS 2251 DEB",
        "meta_object_id": "1993-036ALV",
        "meta_epoch": "2025-12-09T05:09:42.823008",
        "meta_mean_motion": 14.69608937,
        "meta_eccentricity": 0.0020836,
        "meta_inclination": 74.0215,
        "meta_ra_of_asc_node": 172.4599,
        "meta_arg_of_pericenter": 245.5182,
        "meta_mean_anomaly": 114.3816,
        "meta_ephemeris_type": 0,
        "meta_classification_type": "U",
        "meta_norad_cat_id": 35475,
        "meta_element_set_no": 999,
        "meta_rev_at_epoch": 65565,
        "meta_bstar": 0.0022725,
        "meta_mean_motion_dot": 0.00013549,
        "meta_mean_motion_ddot": 0,
        "tle_line1": "1 35475U 93036ALV 25343.21507897  .00013549  00000+0  22725-2 0  9992",
        "tle_line2": "2 35475  74.0215 172.4599 0020836 245.5182 114.3816 14.69608937655652"
      },
      "geometry": {
        "type": "Point",
        "coordinates": [
          -2.6478080361134895,
          -22.494577391850253
        ]
      }
    }
  ]
}